[{"OBJECT_NAME":"STARLINK-32098","OBJECT_ID":"2024-086Y","EPOCH":"2026-03-08T23:53:53.965536","MEAN_MOTION":15.27571772,"ECCENTRICITY":0.00014023,"INCLINATION":43.0009,"RA_OF_ASC_NODE":64.0121,"ARG_OF_PERICENTER":255.1283,"MEAN_ANOMALY":104.9413,"EPHEMERIS_TYPE":0,"CLASSIFICATION_TYPE":"U","NORAD_CAT_ID":59704,"ELEMENT_SET_NO":999,"REV_AT_EPOCH":10400,"BSTAR":-9.76559e-6,"MEAN_MOTION_DOT":-5.31e-6,"MEAN_MOTION_DDOT":0},{"OBJECT_NAME":"TEVEL2-3","OBJECT_ID":"2025-052J","EPOCH":"2026-03-09T15:29:22.754400","MEAN_MOTION":15.30377031,"ECCENTRICITY":0.0004761,"INCLINATION":97.3994,"RA_OF_ASC_NODE":324.7775,"ARG_OF_PERICENTER":105.7353,"MEAN_ANOMALY":254.4413,"EPHEMERIS_TYPE":0,"CLASSIFICATION_TYPE":"U","NORAD_CAT_ID":63218,"ELEMENT_SET_NO":999,"REV_AT_EPOCH":5485,"BSTAR":0.00069446,"MEAN_MOTION_DOT":0.00020365,"MEAN_MOTION_DDOT":0}]
